[ {"name": "STARLINK-37604", "line1": "1 69203U 26114X   26156.08337963 -.01806712  00000+0 -94675-2 0  9992", "line2": "2 69203  53.1587 262.7332 0001072  84.1938 139.3466 15.82883078  2867"}, {"name": "STARLINK-37669", "line1": "1 69204U 26114Y   26156.08337963 -.01779842  00000+0 -92626-2 0  9990", "line2": "2 69204  53.1587 262.7245 0000951  81.8859 145.7169 15.82986130  2866"}, {"name": "STARLINK-37691", "line1": "1 69205U 26114Z   26156.08337963 -.01843328  00000+0 -94650-2 0  9991", "line2": "2 69205  53.1587 262.6992 0000895  84.9273 154.7606 15.83369485  2861"}, {"name": "STARLINK-37671", "line1": "1 69206U 26114AA  26156.08337963 -.01728126  00000+0 -90715-2 0  9998", "line2": "2 69206  53.1584 262.7078 0000946  78.1274 157.5417 15.83220811  2868"}, {"name": "STARLINK-37647", "line1": "1 69207U 26114AB  26156.08337963 -.01730632  00000+0 -91500-2 0  9997", "line2": "2 69207  53.1585 262.7158 0000911  78.5223 153.1729 15.83076600  2862"}, {"name": "STARLINK-37562", "line1": "1 69208U 26114AC  26156.08337963 -.01853371  00000+0 -94701-2 0  9990", "line2": "2 69208  53.1586 262.6907 0000908  78.5658 165.1403 15.83487619  2861"}, {"name": "STARLINK-37682", "line1": "1 69209U 26114AD  26156.08337963 -.01850786  00000+0 -93998-2 0  9995", "line2": "2 69209  53.1586 262.6824 0000773  73.4021 174.2762 15.83611264  2862"}, {"name": "STARLINK-37402", "line1": "1 69210U 26114AE  26156.08337963 -.01854161  00000+0 -93520-2 0  9999", "line2": "2 69210  53.1584 262.6745 0000737  63.7971 187.7811 15.83761075  2860"}, {"name": "STARLINK-37613", "line1": "1 69211U 26115A   26156.08337963 -.00047635  00000+0 -24898-3 0  9993", "line2": "2 69211  97.2830 172.8693 0001039  85.1981 293.7107 15.80844512  2752"}, {"name": "STARLINK-37713", "line1": "1 69212U 26115B   26156.08337963 -.00067067  00000+0 -35135-3 0  9991", "line2": "2 69212  97.2824 172.8690 0001407  73.9419 306.5991 15.80861355  2751"}, {"name": "STARLINK-37716", "line1": "1 69213U 26115C   26156.08337963  .00004597  00000+0  24711-4 0  9998", "line2": "2 69213  97.2830 172.8685 0001291  84.2980 291.9738 15.80831597  2753"}, {"name": "STARLINK-37620", "line1": "1 69214U 26115D   26156.08337963 -.00015638  00000+0 -80966-4 0  9993", "line2": "2 69214  97.2828 172.8710 0001019  89.6100 295.2089 15.80838725  2757"}, {"name": "STARLINK-37700", "line1": "1 69215U 26115E   26156.08337963 -.02450653  00000+0 -19660-1 0  9996", "line2": "2 69215  97.2841 172.8677 0001255  67.1128 308.7417 15.74587592  2759"}, {"name": "STARLINK-37766", "line1": "1 69216U 26115F   26156.08337963  .00006612  00000+0  35222-4 0  9990", "line2": "2 69216  97.2825 172.8750 0001392  90.3089 303.0636 15.80821281  2754"}, {"name": "STARLINK-37763", "line1": "1 69217U 26115G   26156.08337963 -.00298696  00000+0 -15990-2 0  9996", "line2": "2 69217  97.2825 172.8766 0000958  64.3207 332.6775 15.81000970  2759"}, {"name": "STARLINK-37724", "line1": "1 69218U 26115H   26156.08337963  .00006730  00000+0  35839-4 0  9997", "line2": "2 69218  97.2827 172.8784 0001332  91.9059 309.8291 15.80823202  2759"}, {"name": "STARLINK-37758", "line1": "1 69219U 26115J   26156.08337963  .00046819  00000+0  24394-3 0  9993", "line2": "2 69219  97.2825 172.8872 0000956  99.9439 320.0440 15.80808634  2750"}, {"name": "STARLINK-37201", "line1": "1 69220U 26115K   26156.08337963 -.00035587  00000+0 -18557-3 0  9991", "line2": "2 69220  97.2830 172.8830 0001411  96.7950 316.1626 15.80843148  2753"}, {"name": "STARLINK-37728", "line1": "1 69221U 26115L   26156.08337963  .00056400  00000+0  29351-3 0  9991", "line2": "2 69221  97.2830 172.8908 0001161  86.9493 339.7747 15.80799253  2757"}, {"name": "STARLINK-37760", "line1": "1 69222U 26115M   26156.08337963  .00029432  00000+0  15395-3 0  9990", "line2": "2 69222  97.2828 172.8828 0001330  89.8149 321.3120 15.80805755  2751"}, {"name": "STARLINK-37759", "line1": "1 69223U 26115N   26156.08337963  .00030700  00000+0  16053-3 0  9993", "line2": "2 69223  97.2826 172.8913 0000983  91.1342 339.6710 15.80805905  2753"}, {"name": "STARLINK-37725", "line1": "1 69224U 26115P   26156.08337963 -.00048174  00000+0 -25186-3 0  9997", "line2": "2 69224  97.2830 172.8893 0001045  87.1282 340.4319 15.80841490  2758"}, {"name": "STARLINK-37770", "line1": "1 69225U 26115Q   26156.08337963 -.00014325  00000+0 -74126-4 0  9998", "line2": "2 69225  97.2828 172.8874 0001379  87.1838 336.9509 15.80828226  2755"}, {"name": "STARLINK-37736", "line1": "1 69226U 26115R   26156.08337963 -.00013778  00000+0 -71259-4 0  9994", "line2": "2 69226  97.2829 172.8894 0000783  91.4869 336.7013 15.80831064  2751"}, {"name": "STARLINK-37737", "line1": "1 69227U 26115S   26156.08337963 -.00008793  00000+0 -45185-4 0  9995", "line2": "2 69227  97.2826 172.8939 0001497  86.8602 352.6718 15.80827121  2775"}, {"name": "STARLINK-37618", "line1": "1 69228U 26115T   26156.08337963 -.00049202  00000+0 -25723-3 0  9991", "line2": "2 69228  97.2831 172.9029 0001482  95.0136   5.2700 15.80844531  2755"}, {"name": "STARLINK-37679", "line1": "1 69229U 26115U   26156.08337963 -.00057923  00000+0 -30331-3 0  9992", "line2": "2 69229  97.2829 172.8994 0001219  92.1072 359.7852 15.80841774  2759"}, {"name": "STARLINK-37746", "line1": "1 69230U 26115V   26156.08337963 -.00021780  00000+0 -11316-3 0  9998", "line2": "2 69230  97.2828 172.8955 0001157  85.3689 357.7950 15.80834813  2759"}, {"name": "STARLINK-37557", "line1": "1 69231U 26115W   26156.08337963 -.00043227  00000+0 -22580-3 0  9994", "line2": "2 69231  97.2834 172.9037 0001293  94.3213   7.0357 15.80839805  2755"}, {"name": "STARLINK-37745", "line1": "1 69232U 26115X   26156.08337963 -.00053600  00000+0 -28000-3 0  9994", "line2": "2 69232  97.2827 172.9136 0001376 114.7599   9.4695 15.80878350  2753"}]