OBJECT_NAME,OBJECT_ID,EPOCH,MEAN_MOTION,ECCENTRICITY,INCLINATION,RA_OF_ASC_NODE,ARG_OF_PERICENTER,MEAN_ANOMALY,EPHEMERIS_TYPE,CLASSIFICATION_TYPE,NORAD_CAT_ID,ELEMENT_SET_NO,REV_AT_EPOCH,BSTAR,MEAN_MOTION_DOT,MEAN_MOTION_DDOT
STARLINK-37604,2026-114X,2026-06-05T02:00:04.000032,15.82883078,.0001072,53.1587,262.7332,84.1938,139.3466,0,U,69203,999,286,-.94675E-2,-.1806712E-1,0
STARLINK-37669,2026-114Y,2026-06-05T02:00:04.000032,15.82986130,.0000951,53.1587,262.7245,81.8859,145.7169,0,U,69204,999,286,-.92626E-2,-.1779842E-1,0
STARLINK-37691,2026-114Z,2026-06-05T02:00:04.000032,15.83369485,.0000895,53.1587,262.6992,84.9273,154.7606,0,U,69205,999,286,-.9465E-2,-.1843328E-1,0
STARLINK-37671,2026-114AA,2026-06-05T02:00:04.000032,15.83220811,.0000946,53.1584,262.7078,78.1274,157.5417,0,U,69206,999,286,-.90715E-2,-.1728126E-1,0
STARLINK-37647,2026-114AB,2026-06-05T02:00:04.000032,15.83076600,.0000911,53.1585,262.7158,78.5223,153.1729,0,U,69207,999,286,-.915E-2,-.1730632E-1,0
STARLINK-37562,2026-114AC,2026-06-05T02:00:04.000032,15.83487619,.0000908,53.1586,262.6907,78.5658,165.1403,0,U,69208,999,286,-.94701E-2,-.1853371E-1,0
STARLINK-37682,2026-114AD,2026-06-05T02:00:04.000032,15.83611264,.0000773,53.1586,262.6824,73.4021,174.2762,0,U,69209,999,286,-.93998E-2,-.1850786E-1,0
STARLINK-37402,2026-114AE,2026-06-05T02:00:04.000032,15.83761075,.0000737,53.1584,262.6745,63.7971,187.7811,0,U,69210,999,286,-.9352E-2,-.1854161E-1,0
STARLINK-37613,2026-115A,2026-06-05T02:00:04.000032,15.80844512,.0001039,97.2830,172.8693,85.1981,293.7107,0,U,69211,999,275,-.24898E-3,-.47635E-3,0
STARLINK-37713,2026-115B,2026-06-05T02:00:04.000032,15.80861355,.0001407,97.2824,172.8690,73.9419,306.5991,0,U,69212,999,275,-.35135E-3,-.67067E-3,0
STARLINK-37716,2026-115C,2026-06-05T02:00:04.000032,15.80831597,.0001291,97.2830,172.8685,84.2980,291.9738,0,U,69213,999,275,.24711E-4,.4597E-4,0
STARLINK-37620,2026-115D,2026-06-05T02:00:04.000032,15.80838725,.0001019,97.2828,172.8710,89.6100,295.2089,0,U,69214,999,275,-.80966E-4,-.15638E-3,0
STARLINK-37700,2026-115E,2026-06-05T02:00:04.000032,15.74587592,.0001255,97.2841,172.8677,67.1128,308.7417,0,U,69215,999,275,-.1966E-1,-.2450653E-1,0
STARLINK-37766,2026-115F,2026-06-05T02:00:04.000032,15.80821281,.0001392,97.2825,172.8750,90.3089,303.0636,0,U,69216,999,275,.35222E-4,.6612E-4,0
STARLINK-37763,2026-115G,2026-06-05T02:00:04.000032,15.81000970,.0000958,97.2825,172.8766,64.3207,332.6775,0,U,69217,999,275,-.1599E-2,-.298696E-2,0
STARLINK-37724,2026-115H,2026-06-05T02:00:04.000032,15.80823202,.0001332,97.2827,172.8784,91.9059,309.8291,0,U,69218,999,275,.35839E-4,.673E-4,0
STARLINK-37758,2026-115J,2026-06-05T02:00:04.000032,15.80808634,.0000956,97.2825,172.8872,99.9439,320.0440,0,U,69219,999,275,.24394E-3,.46819E-3,0
STARLINK-37201,2026-115K,2026-06-05T02:00:04.000032,15.80843148,.0001411,97.2830,172.8830,96.7950,316.1626,0,U,69220,999,275,-.18557E-3,-.35587E-3,0
STARLINK-37728,2026-115L,2026-06-05T02:00:04.000032,15.80799253,.0001161,97.2830,172.8908,86.9493,339.7747,0,U,69221,999,275,.29351E-3,.564E-3,0
STARLINK-37760,2026-115M,2026-06-05T02:00:04.000032,15.80805755,.000133,97.2828,172.8828,89.8149,321.3120,0,U,69222,999,275,.15395E-3,.29432E-3,0
STARLINK-37759,2026-115N,2026-06-05T02:00:04.000032,15.80805905,.0000983,97.2826,172.8913,91.1342,339.6710,0,U,69223,999,275,.16053E-3,.307E-3,0
STARLINK-37725,2026-115P,2026-06-05T02:00:04.000032,15.80841490,.0001045,97.2830,172.8893,87.1282,340.4319,0,U,69224,999,275,-.25186E-3,-.48174E-3,0
STARLINK-37770,2026-115Q,2026-06-05T02:00:04.000032,15.80828226,.0001379,97.2828,172.8874,87.1838,336.9509,0,U,69225,999,275,-.74126E-4,-.14325E-3,0
STARLINK-37736,2026-115R,2026-06-05T02:00:04.000032,15.80831064,.0000783,97.2829,172.8894,91.4869,336.7013,0,U,69226,999,275,-.71259E-4,-.13778E-3,0
STARLINK-37737,2026-115S,2026-06-05T02:00:04.000032,15.80827121,.0001497,97.2826,172.8939,86.8602,352.6718,0,U,69227,999,277,-.45185E-4,-.8793E-4,0
STARLINK-37618,2026-115T,2026-06-05T02:00:04.000032,15.80844531,.0001482,97.2831,172.9029,95.0136,5.2700,0,U,69228,999,275,-.25723E-3,-.49202E-3,0
STARLINK-37679,2026-115U,2026-06-05T02:00:04.000032,15.80841774,.0001219,97.2829,172.8994,92.1072,359.7852,0,U,69229,999,275,-.30331E-3,-.57923E-3,0
STARLINK-37746,2026-115V,2026-06-05T02:00:04.000032,15.80834813,.0001157,97.2828,172.8955,85.3689,357.7950,0,U,69230,999,275,-.11316E-3,-.2178E-3,0
STARLINK-37557,2026-115W,2026-06-05T02:00:04.000032,15.80839805,.0001293,97.2834,172.9037,94.3213,7.0357,0,U,69231,999,275,-.2258E-3,-.43227E-3,0
STARLINK-37745,2026-115X,2026-06-05T02:00:04.000032,15.80878350,.0001376,97.2827,172.9136,114.7599,9.4695,0,U,69232,999,275,-.28E-3,-.536E-3,0
